[{"OBJECT_NAME":"GPS BIIF-11","OBJECT_ID":"2015-062A","EPOCH":"2026-04-24T22:18:26.580384","MEAN_MOTION":2.00566987,"ECCENTRICITY":0.01112514,"INCLINATION":56.9258,"RA_OF_ASC_NODE":32.8632,"ARG_OF_PERICENTER":231.5279,"MEAN_ANOMALY":127.4763,"EPHEMERIS_TYPE":0,"CLASSIFICATION_TYPE":"U","NORAD_CAT_ID":41019,"ELEMENT_SET_NO":999,"REV_AT_EPOCH":7676,"BSTAR":0,"MEAN_MOTION_DOT":-9.1e-7,"MEAN_MOTION_DDOT":0},{"OBJECT_NAME":"ELEKTRO-L 2","OBJECT_ID":"2015-074A","EPOCH":"2026-04-25T16:57:49.817376","MEAN_MOTION":1.00270542,"ECCENTRICITY":0.0002298,"INCLINATION":6.5646,"RA_OF_ASC_NODE":71.154,"ARG_OF_PERICENTER":254.287,"MEAN_ANOMALY":128.2279,"EPHEMERIS_TYPE":0,"CLASSIFICATION_TYPE":"U","NORAD_CAT_ID":41105,"ELEMENT_SET_NO":999,"REV_AT_EPOCH":3798,"BSTAR":0,"MEAN_MOTION_DOT":-1.27e-6,"MEAN_MOTION_DDOT":0},{"OBJECT_NAME":"GSAT0209 (GALILEO 12)","OBJECT_ID":"2015-079A","EPOCH":"2026-04-25T05:54:23.549760","MEAN_MOTION":1.70474059,"ECCENTRICITY":0.000568,"INCLINATION":55.7962,"RA_OF_ASC_NODE":102.7123,"ARG_OF_PERICENTER":329.0159,"MEAN_ANOMALY":30.9454,"EPHEMERIS_TYPE":0,"CLASSIFICATION_TYPE":"U","NORAD_CAT_ID":41174,"ELEMENT_SET_NO":999,"REV_AT_EPOCH":6387,"BSTAR":0,"MEAN_MOTION_DOT":4.6e-7,"MEAN_MOTION_DDOT":0},{"OBJECT_NAME":"GSAT0208 (GALILEO 11)","OBJECT_ID":"2015-079B","EPOCH":"2026-04-23T16:57:31.262112","MEAN_MOTION":1.70473916,"ECCENTRICITY":0.0005073,"INCLINATION":55.794,"RA_OF_ASC_NODE":102.7517,"ARG_OF_PERICENTER":330.2209,"MEAN_ANOMALY":29.7424,"EPHEMERIS_TYPE":0,"CLASSIFICATION_TYPE":"U","NORAD_CAT_ID":41175,"ELEMENT_SET_NO":999,"REV_AT_EPOCH":6426,"BSTAR":0,"MEAN_MOTION_DOT":4.4e-7,"MEAN_MOTION_DDOT":0},{"OBJECT_NAME":"GPS BIIF-12","OBJECT_ID":"2016-007A","EPOCH":"2026-04-25T00:24:46.680480","MEAN_MOTION":2.0055418,"ECCENTRICITY":0.00961178,"INCLINATION":55.4917,"RA_OF_ASC_NODE":91.5661,"ARG_OF_PERICENTER":247.0721,"MEAN_ANOMALY":111.9007,"EPHEMERIS_TYPE":0,"CLASSIFICATION_TYPE":"U","NORAD_CAT_ID":41328,"ELEMENT_SET_NO":999,"REV_AT_EPOCH":7477,"BSTAR":0,"MEAN_MOTION_DOT":3.7e-7,"MEAN_MOTION_DDOT":0},{"OBJECT_NAME":"GSAT0211 (GALILEO 14)","OBJECT_ID":"2016-030A","EPOCH":"2026-04-24T10:00:52.436448","MEAN_MOTION":1.70474087,"ECCENTRICITY":0.00025245,"INCLINATION":55.1119,"RA_OF_ASC_NODE":223.1731,"ARG_OF_PERICENTER":359.1559,"MEAN_ANOMALY":0.8397,"EPHEMERIS_TYPE":0,"CLASSIFICATION_TYPE":"U","NORAD_CAT_ID":41549,"ELEMENT_SET_NO":999,"REV_AT_EPOCH":6175,"BSTAR":0,"MEAN_MOTION_DOT":-3.0e-7,"MEAN_MOTION_DDOT":0},{"OBJECT_NAME":"GSAT0210 (GALILEO 13)","OBJECT_ID":"2016-030B","EPOCH":"2026-04-25T06:16:01.106688","MEAN_MOTION":1.70474037,"ECCENTRICITY":0.0002811,"INCLINATION":55.1104,"RA_OF_ASC_NODE":223.148,"ARG_OF_PERICENTER":225.6811,"MEAN_ANOMALY":134.2889,"EPHEMERIS_TYPE":0,"CLASSIFICATION_TYPE":"U","NORAD_CAT_ID":41550,"ELEMENT_SET_NO":999,"REV_AT_EPOCH":6176,"BSTAR":0,"MEAN_MOTION_DOT":-3.6e-7,"MEAN_MOTION_DDOT":0},{"OBJECT_NAME":"INSAT-3DR","OBJECT_ID":"2016-054A","EPOCH":"2026-04-25T19:05:39.752736","MEAN_MOTION":1.00271286,"ECCENTRICITY":0.0011677,"INCLINATION":0.1123,"RA_OF_ASC_NODE":86.1637,"ARG_OF_PERICENTER":195.1508,"MEAN_ANOMALY":292.8983,"EPHEMERIS_TYPE":0,"CLASSIFICATION_TYPE":"U","NORAD_CAT_ID":41752,"ELEMENT_SET_NO":999,"REV_AT_EPOCH":3529,"BSTAR":0,"MEAN_MOTION_DOT":-9.0e-7,"MEAN_MOTION_DDOT":0},{"OBJECT_NAME":"GSAT0207 (GALILEO 15)","OBJECT_ID":"2016-069A","EPOCH":"2026-04-23T04:37:56.174592","MEAN_MOTION":1.70473937,"ECCENTRICITY":0.00059058,"INCLINATION":55.4647,"RA_OF_ASC_NODE":102.6061,"ARG_OF_PERICENTER":316.751,"MEAN_ANOMALY":43.1935,"EPHEMERIS_TYPE":0,"CLASSIFICATION_TYPE":"U","NORAD_CAT_ID":41859,"ELEMENT_SET_NO":999,"REV_AT_EPOCH":5846,"BSTAR":0,"MEAN_MOTION_DOT":4.2e-7,"MEAN_MOTION_DDOT":0},{"OBJECT_NAME":"GSAT0212 (GALILEO 16)","OBJECT_ID":"2016-069B","EPOCH":"2026-04-24T05:16:19.805088","MEAN_MOTION":1.70474155,"ECCENTRICITY":0.00046454,"INCLINATION":55.4625,"RA_OF_ASC_NODE":102.5729,"ARG_OF_PERICENTER":340.5096,"MEAN_ANOMALY":19.4658,"EPHEMERIS_TYPE":0,"CLASSIFICATION_TYPE":"U","NORAD_CAT_ID":41860,"ELEMENT_SET_NO":999,"REV_AT_EPOCH":5873,"BSTAR":0,"MEAN_MOTION_DOT":4.4e-7,"MEAN_MOTION_DDOT":0},{"OBJECT_NAME":"GSAT0213 (GALILEO 17)","OBJECT_ID":"2016-069C","EPOCH":"2026-04-25T04:09:59.712192","MEAN_MOTION":1.70474518,"ECCENTRICITY":0.0005854,"INCLINATION":55.4662,"RA_OF_ASC_NODE":102.5544,"ARG_OF_PERICENTER":302.3888,"MEAN_ANOMALY":57.5492,"EPHEMERIS_TYPE":0,"CLASSIFICATION_TYPE":"U","NORAD_CAT_ID":41861,"ELEMENT_SET_NO":999,"REV_AT_EPOCH":5861,"BSTAR":0,"MEAN_MOTION_DOT":4.5e-7,"MEAN_MOTION_DDOT":0},{"OBJECT_NAME":"GSAT0214 (GALILEO 18)","OBJECT_ID":"2016-069D","EPOCH":"2026-04-25T07:40:24.169152","MEAN_MOTION":1.70474268,"ECCENTRICITY":0.0004908,"INCLINATION":55.4645,"RA_OF_ASC_NODE":102.5431,"ARG_OF_PERICENTER":307.4228,"MEAN_ANOMALY":52.5273,"EPHEMERIS_TYPE":0,"CLASSIFICATION_TYPE":"U","NORAD_CAT_ID":41862,"ELEMENT_SET_NO":999,"REV_AT_EPOCH":5874,"BSTAR":0,"MEAN_MOTION_DOT":4.5e-7,"MEAN_MOTION_DDOT":0},{"OBJECT_NAME":"GOES 16","OBJECT_ID":"2016-071A","EPOCH":"2026-04-25T15:00:38.644992","MEAN_MOTION":1.00271047,"ECCENTRICITY":0.0001543,"INCLINATION":0.2096,"RA_OF_ASC_NODE":85.2522,"ARG_OF_PERICENTER":247.7106,"MEAN_ANOMALY":1.1255,"EPHEMERIS_TYPE":0,"CLASSIFICATION_TYPE":"U","NORAD_CAT_ID":41866,"ELEMENT_SET_NO":999,"REV_AT_EPOCH":3457,"BSTAR":0,"MEAN_MOTION_DOT":-1.04e-6,"MEAN_MOTION_DDOT":0},{"OBJECT_NAME":"GSAT-17","OBJECT_ID":"2017-040B","EPOCH":"2026-04-25T20:57:21.716064","MEAN_MOTION":1.00274387,"ECCENTRICITY":0.0004385,"INCLINATION":0.0165,"RA_OF_ASC_NODE":252.8041,"ARG_OF_PERICENTER":63.465,"MEAN_ANOMALY":305.4614,"EPHEMERIS_TYPE":0,"CLASSIFICATION_TYPE":"U","NORAD_CAT_ID":42815,"ELEMENT_SET_NO":999,"REV_AT_EPOCH":3226,"BSTAR":0,"MEAN_MOTION_DOT":-2.72e-6,"MEAN_MOTION_DDOT":0},{"OBJECT_NAME":"GSAT0215 (GALILEO 19)","OBJECT_ID":"2017-079A","EPOCH":"2026-04-23T11:07:24.507840","MEAN_MOTION":1.70474699,"ECCENTRICITY":0.00014285,"INCLINATION":55.0907,"RA_OF_ASC_NODE":223.0118,"ARG_OF_PERICENTER":264.4741,"MEAN_ANOMALY":95.5096,"EPHEMERIS_TYPE":0,"CLASSIFICATION_TYPE":"U","NORAD_CAT_ID":43055,"ELEMENT_SET_NO":999,"REV_AT_EPOCH":5205,"BSTAR":0,"MEAN_MOTION_DOT":-2.2e-7,"MEAN_MOTION_DDOT":0},{"OBJECT_NAME":"GSAT0216 (GALILEO 20)","OBJECT_ID":"2017-079B","EPOCH":"2026-04-24T22:16:03.139968","MEAN_MOTION":1.70474805,"ECCENTRICITY":0.0002775,"INCLINATION":55.0895,"RA_OF_ASC_NODE":222.9715,"ARG_OF_PERICENTER":284.1808,"MEAN_ANOMALY":75.7828,"EPHEMERIS_TYPE":0,"CLASSIFICATION_TYPE":"U","NORAD_CAT_ID":43056,"ELEMENT_SET_NO":999,"REV_AT_EPOCH":5209,"BSTAR":0,"MEAN_MOTION_DOT":-3.4e-7,"MEAN_MOTION_DDOT":0},{"OBJECT_NAME":"GSAT0217 (GALILEO 21)","OBJECT_ID":"2017-079C","EPOCH":"2026-04-25T03:33:58.023936","MEAN_MOTION":1.70474762,"ECCENTRICITY":0.0002225,"INCLINATION":55.0882,"RA_OF_ASC_NODE":222.9635,"ARG_OF_PERICENTER":307.452,"MEAN_ANOMALY":52.5215,"EPHEMERIS_TYPE":0,"CLASSIFICATION_TYPE":"U","NORAD_CAT_ID":43057,"ELEMENT_SET_NO":999,"REV_AT_EPOCH":5208,"BSTAR":0,"MEAN_MOTION_DOT":-3.5e-7,"MEAN_MOTION_DDOT":0}]
